OBJECT_NAME,OBJECT_ID,EPOCH,MEAN_MOTION,ECCENTRICITY,INCLINATION,RA_OF_ASC_NODE,ARG_OF_PERICENTER,MEAN_ANOMALY,EPHEMERIS_TYPE,CLASSIFICATION_TYPE,NORAD_CAT_ID,ELEMENT_SET_NO,REV_AT_EPOCH,BSTAR,MEAN_MOTION_DOT,MEAN_MOTION_DDOT
STARLINK-32447,2024-175U,2026-06-04T22:00:05.000256,15.33525473,.00009475,53.1586,148.7623,96.2590,135.9710,0,U,61261,999,581,.14996586E-2,.49235E-3,0
STARLINK-32446,2024-175V,2026-06-04T06:01:39.163872,15.34400318,.00012252,53.1589,151.4729,86.3193,273.7949,0,U,61262,999,9471,.15453343E-3,.4848E-4,0
HULIANWAN GAOGUI-03 (HG-03),2024-181A,2026-06-04T09:46:20.593056,1.00271246,.00014391,0.0444,359.6070,102.0804,220.6203,0,U,61503,999,669,0,-.229E-5,0
STARLINK-32174,2024-183A,2026-06-03T00:00:02.000160,15.34325631,.00013425,53.1592,93.2873,65.6602,1.5857,0,U,61509,999,573,.38369375E-3,.12579E-3,0
STARLINK-32139,2024-183B,2026-06-04T03:27:00.656640,15.31699438,.00011754,53.1587,100.5575,111.3053,248.8074,0,U,61510,999,9289,-.13751285E-4,-.792E-5,0
STARLINK-32140,2024-183C,2026-06-04T03:00:08.770464,15.31699463,.00015532,53.1604,100.4423,107.3167,252.8005,0,U,61511,999,9289,.15309842E-4,.11E-5,0
STARLINK-32201,2024-183D,2026-06-02T03:26:35.695680,15.30187319,.00011266,53.1603,97.3148,108.1152,251.9972,0,U,61512,999,9276,-.78004187E-4,-.2668E-4,0
STARLINK-32030,2024-183E,2026-06-04T02:53:17.949696,15.30194210,.00013759,53.1602,101.1176,98.0808,262.0348,0,U,61513,999,9288,.30425834E-4,.542E-5,0
STARLINK-31837,2024-183F,2026-06-04T04:09:06.993504,15.30190740,.00012282,53.1603,100.7177,79.5581,280.5558,0,U,61514,999,9289,.28143458E-4,.474E-5,0
STARLINK-32136,2024-183G,2026-06-04T03:47:10.556448,15.31706717,.00013832,53.1622,100.6328,85.9458,274.1701,0,U,61515,999,9289,-.15468252E-4,-.845E-5,0
STARLINK-32047,2024-183H,2026-06-04T03:13:33.390336,15.31712971,.00013254,53.1608,100.4819,96.0796,264.0357,0,U,61516,999,9289,.3798431E-4,.814E-5,0
STARLINK-31756,2024-183J,2026-06-04T16:02:11.095872,15.30193510,.00013064,53.1596,98.7815,84.9533,275.1617,0,U,61517,999,9296,.15908103E-4,.112E-5,0
STARLINK-32172,2024-183K,2026-06-04T06:14:44.698848,15.31718942,.00014308,53.1607,99.8421,74.0769,286.0390,0,U,61518,999,9291,.10849288E-3,.3005E-4,0
STARLINK-32338,2024-183L,2026-06-04T22:00:05.000256,15.49285679,.00006542,53.1595,93.4973,102.3543,145.3311,0,U,61519,999,595,.45150171E-3,.24721E-3,0
STARLINK-32306,2024-183M,2026-06-04T03:33:43.783488,15.31703091,.0001344,53.1606,100.5628,102.4861,257.6291,0,U,61520,999,9289,.37822554E-4,.809E-5,0
STARLINK-32297,2024-183N,2026-06-04T00:32:08.632896,15.30188967,.00012757,53.1603,101.1914,90.1170,269.9977,0,U,61521,999,9287,-.22339966E-4,-.102E-4,0
STARLINK-32260,2024-183P,2026-06-04T22:17:20.110272,15.31355431,.0001475,53.1567,96.9035,115.5254,244.5900,0,U,61522,999,9301,.23674493E-2,.7303E-3,0
STARLINK-32305,2024-183Q,2026-06-04T02:48:44.313120,15.30193230,.00012881,53.1603,101.0814,81.0721,279.0425,0,U,61523,999,9288,.33288502E-4,.627E-5,0
STARLINK-32296,2024-183R,2026-06-04T02:53:24.215424,15.31693036,.00014468,53.1615,100.3954,93.8016,266.3151,0,U,61524,999,9289,-.30639612E-4,-.1316E-4,0
STARLINK-32298,2024-183S,2026-06-04T01:46:19.820064,15.31706450,.00012945,53.1605,100.8074,65.5228,294.5908,0,U,61525,999,9288,-.3027208E-4,-.1305E-4,0
STARLINK-32293,2024-183T,2026-06-04T03:22:10.925472,15.30186222,.00009687,53.1578,101.2210,109.8750,250.2356,0,U,61526,999,9288,.59861184E-4,.1414E-4,0
STARLINK-32313,2024-183U,2026-06-04T03:13:02.872992,15.30197709,.00011038,53.1593,101.1793,72.7565,287.3556,0,U,61527,999,9288,.50303484E-4,.1131E-4,0
STARLINK-32319,2024-183V,2026-06-04T03:20:41.124768,15.30188916,.00020785,53.1594,101.2157,143.8031,216.3111,0,U,61528,999,9288,-.1845696E-3,-.582E-4,0
STARLINK-32351,2024-183W,2026-06-04T02:29:34.927872,15.30193299,.00014586,53.1608,98.1764,97.2783,262.8383,0,U,61529,999,9292,.111708E-4,-.28E-6,0
STARLINK-32261,2024-183X,2026-06-04T03:53:52.916928,15.31711312,.0001307,53.1605,100.6677,87.2882,272.8269,0,U,61530,999,9289,.70191848E-4,.1814E-4,0
STARLINK-32358,2024-183Y,2026-06-04T22:00:05.000256,15.49282380,.00010223,53.1600,93.7489,90.4930,35.7001,0,U,61531,999,595,.57499785E-3,.3163E-3,0
STARLINK-11354 [DTC],2024-184A,2026-06-04T06:20:10.883904,15.69708766,.00041506,53.1606,169.5840,161.3533,198.7638,0,U,61532,999,9401,.9330632E-5,.537E-5,0
STARLINK-11323 [DTC],2024-184B,2026-06-04T06:06:03.309408,15.69707987,.00012144,53.1576,169.4918,133.8114,226.3005,0,U,61533,999,9401,.16879814E-4,.1456E-4,0
STARLINK-11338 [DTC],2024-184C,2026-06-04T06:13:07.370112,15.69708991,.00014235,53.1572,169.5263,31.6652,328.4451,0,U,61534,999,9401,.8029745E-5,.384E-5,0
STARLINK-11362 [DTC],2024-184D,2026-06-04T05:51:56.104704,15.69705628,.00008985,53.1584,169.4390,100.1463,259.9656,0,U,61535,999,9401,.17810124E-4,.1569E-4,0
STARLINK-11295 [DTC],2024-184E,2026-06-04T05:59:00.283776,15.69696153,.00015266,53.1578,169.4711,142.5877,217.5248,0,U,61536,999,9401,-.2751226E-5,-.922E-5,0
STARLINK-11325 [DTC],2024-184G,2026-06-04T05:37:47.830368,15.69731052,.00006512,53.1578,169.3636,104.0118,256.0972,0,U,61538,999,9401,-.29465197E-4,-.4159E-4,0
STARLINK-11332 [DTC],2024-184H,2026-06-04T05:30:44.662176,15.69709601,.0000907,53.1584,169.3615,123.0848,237.0257,0,U,61539,999,9401,.14183152E-4,.113E-4,0
STARLINK-11350 [DTC],2024-184J,2026-06-04T05:23:40.580736,15.69710645,.0000711,53.1574,169.3109,116.6898,243.4192,0,U,61540,999,9401,.6876518E-5,.245E-5,0
STARLINK-11357 [DTC],2024-184K,2026-06-04T05:16:45.528096,15.69706738,.00003433,53.1571,170.0107,69.8593,290.2462,0,U,61541,999,9400,.5975492E-5,.137E-5,0
STARLINK-11322 [DTC],2024-184L,2026-06-04T14:19:48.108576,15.69705830,.00008313,53.1579,168.0956,109.0791,251.0317,0,U,61542,999,9512,.14503806E-4,.1169E-4,0
STARLINK-11364 [DTC],2024-184M,2026-06-04T05:02:37.797216,15.69706900,.00007592,53.1583,169.9397,91.6793,268.4311,0,U,61543,999,9400,.9715344E-5,.589E-5,0
STARLINK-11349 [DTC],2024-184N,2026-06-04T12:33:59.879808,15.69703344,.00026622,53.1569,168.3271,18.9812,341.1305,0,U,61544,999,9405,.3647774E-5,-.149E-5,0
STARLINK-32406,2024-184P,2026-06-04T22:00:05.000256,15.34259359,.00026521,53.1606,328.8280,83.0416,188.6811,0,U,61545,999,591,.30958342E-2,.10523E-2,0
STARLINK-32445,2024-184Q,2026-06-04T15:31:37.172064,15.34389815,.00013019,53.1611,329.8142,107.6481,252.4664,0,U,61546,999,9182,.22375743E-4,.38E-5,0
STARLINK-32411,2024-184R,2026-06-04T17:40:59.926080,15.30775929,.00016654,53.1616,329.6614,224.0847,136.0022,0,U,61547,999,9183,.30369542E-2,.92347E-3,0
STARLINK-32424,2024-184S,2026-06-04T17:14:30.611040,15.34389411,.00012178,53.1631,329.5490,77.1232,282.9906,0,U,61548,999,9183,.20847271E-4,.328E-5,0
STARLINK-32389,2024-184T,2026-06-04T17:37:09.060096,15.30198312,.00013319,53.1617,329.6469,125.5555,234.5571,0,U,61549,999,9183,.36299492E-4,.716E-5,0
STARLINK-32476,2024-184U,2026-06-04T22:04:59.511936,15.34375941,.00009052,53.1612,328.6775,75.4779,284.6324,0,U,61550,999,9186,.1698906E-3,.5364E-4,0
STARLINK-32366,2024-184V,2026-06-04T15:22:31.620864,15.34390916,.00013404,53.1620,329.7793,62.4799,297.6340,0,U,61551,999,9182,.20924339E-4,.331E-5,0
QIANFAN-19,2024-185A,2026-06-04T21:42:32.816736,14.14467682,.00091173,88.9847,57.9762,99.5254,260.6963,0,U,61552,999,9428,.23506504E-3,.465E-5,0
QIANFAN-20,2024-185B,2026-06-04T21:36:38.001312,14.09010559,.00069119,88.9843,58.4736,129.9646,230.2146,0,U,61553,999,9401,.22428256E-3,.402E-5,0
QIANFAN-21,2024-185C,2026-06-04T21:25:43.853952,14.22842323,.00114948,88.9763,56.5749,144.3244,215.8718,0,U,61554,999,9473,.2992475E-3,.686E-5,0
QIANFAN-22,2024-185D,2026-06-04T21:06:49.116096,13.86389511,.00062775,88.9829,60.1600,162.8719,197.2665,0,U,61555,999,9306,.25979635E-3,.314E-5,0
QIANFAN-23,2024-185E,2026-06-04T20:17:02.334624,14.16492867,.00096394,88.9838,57.7107,107.2890,252.9354,0,U,61556,999,9439,.21564324E-3,.443E-5,0
QIANFAN-24,2024-185F,2026-06-04T21:19:45.759648,14.24058195,.0011728,88.9823,56.8280,88.8970,271.3566,0,U,61557,999,9480,.28973844E-3,.68E-5,0
QIANFAN-25,2024-185G,2026-06-04T20:56:30.926688,14.06067225,.00117945,88.9833,58.4747,138.4712,221.7369,0,U,61558,999,9397,.3095322E-3,.522E-5,0
QIANFAN-26,2024-185H,2026-06-04T21:25:07.825152,13.77907901,.00047589,88.9835,60.9459,182.4091,177.7053,0,U,61559,999,9265,.23278878E-3,.246E-5,0
QIANFAN-27,2024-185J,2026-06-04T21:03:35.975808,14.27527965,.0009856,88.9832,56.5233,79.2549,280.9755,0,U,61560,999,9500,.20309767E-3,.514E-5,0
QIANFAN-28,2024-185K,2026-06-04T21:43:55.942176,14.28368650,.00097099,88.9851,56.5315,77.4439,282.7841,0,U,61561,999,9503,.32557212E-3,.828E-5,0
QIANFAN-29,2024-185L,2026-06-04T20:32:37.315680,13.51071570,.00077835,88.9810,63.3060,268.1289,91.8971,0,U,61562,999,9130,.13273587E-3,.98E-6,0
QIANFAN-30,2024-185M,2026-06-04T21:19:52.585248,13.50048161,.00052728,88.9830,62.8947,251.6060,108.4517,0,U,61563,999,9156,.43031086E-4,.39E-6,0
QIANFAN-31,2024-185N,2026-06-04T20:46:40.682496,13.58035726,.00049696,88.9813,62.4227,234.2245,125.8449,0,U,61564,999,9179,.14128574E-3,.114E-5,0
QIANFAN-32,2024-185P,2026-06-04T21:49:45.868224,13.50785408,.00077251,88.9871,63.0794,288.3443,71.6868,0,U,61565,999,9155,.86041747E-4,.67E-6,0
QIANFAN-33,2024-185Q,2026-06-04T20:38:24.187488,13.96696449,.00087588,88.9827,59.3876,128.1725,232.0243,0,U,61566,999,9346,.21798203E-3,.316E-5,0
QIANFAN-34,2024-185R,2026-06-04T21:29:42.775008,14.02461984,.00068185,88.9806,58.7169,126.9070,233.2736,0,U,61567,999,9376,.23118799E-3,.369E-5,0
QIANFAN-35,2024-185S,2026-06-04T21:12:21.318912,14.28255553,.00088409,88.9832,56.4320,75.8196,284.3980,0,U,61568,999,9503,.30825372E-3,.783E-5,0
QIANFAN-36,2024-185T,2026-06-04T20:42:27.383616,13.55633453,.00040344,88.9805,62.8929,256.3798,103.6906,0,U,61569,999,9151,.12453173E-3,.99E-6,0
GAOFEN-12 05,2024-186A,2026-06-04T23:24:59.145120,14.80947710,.00012209,97.9093,164.2803,56.4257,303.7072,0,U,61571,999,8753,.66402744E-4,.462E-5,0
